#dP2023  5 22 18  0  0.00000000      96 __u+U ITR00 EXT  IAC
## 2263 151200.00000000   900.00000000 60086 0.7500000000000
+  119   C06C07C08C09C10C11C12C13C14C16C19C20C21C22C23C24C25
+        C26C27C28C29C30C32C33C34C35C36C37C38C39C40C41C42C43
+        C44C45C46E02E03E04E05E07E08E09E10E11E12E13E14E15E18
+        E19E21E24E25E26E27E30E31E33E34E36G01G02G03G04G05G06
+        G07G08G09G10G11G12G13G14G15G16G17G18G19G20G21G22G23
+        G24G25G26G27G28G29G30G31G32J02J03J04R01R02R03R04R05
+        R07R08R09R11R12R13R14R15R16R17R18R19R20R21R22R24R25
++         7 10 15  8  9  8 10 11  9  8  9  9  9  8  9  8  7
++         8  8  9  7  9  9  9  9  8  9  8 10 10  9  9  9  7
++         7 10  8 10  8  7  9  7  7  9  7  8  8  8  7  8  8
++         8 10 10 10  7  9 10 10  8  7  8  8  7  7  7  7  8
++         8  6  7  8  7  7  7 10  7  8  8  8  7  7  8  7  8
++         7  8  8  8  7  7  7  7  7  9  8  7  7  8  8  8  9
++         8  8  8  7  8  9  9  8 10  7  7  9  8  7  9  6  9
%c M  cc GPS ccc cccc cccc cccc cccc ccccc ccccc ccccc ccccc
%c cc cc ccc ccc cccc cccc cccc cccc ccccc ccccc ccccc ccccc
%f  0.0000000  0.000000000  0.00000000000  0.000000000000000
%f  0.0000000  0.000000000  0.00000000000  0.000000000000000
%i    0    0    0    0      0      0      0      0         0
%i    0    0    0    0      0      0      0      0         0
/* IAC                                ULTRA-RAPID PREDICTION
/* S/V CLOCKS ARE ALIGNED TO GNSS TIME                      
/* G:C1WC2W R:C1PC2P E:C1XC5X C:C2IC6I J:C1CC2S             
/* PCV:IGS20_2247 OL/AL:FES2004  NONE     YN ORB:CoN CLK:CoN
*  2023 05 23 11  0  0.00000000
PC06      0.000000      0.000000      0.000000   -188.250460
PC07  -3283.721714  34553.979207 -23780.525475    -61.501277
PC08  -9903.071840  19341.255736  36110.119243    478.723666
PC09 -10339.261339  35325.532712 -20628.696081    620.831887
PC10   4499.278718  37492.959914 -17931.597973    -65.901598
PC11  -9293.712513 -14123.736452 -22145.486699    634.597220
PC12   4610.308452 -25434.602475 -10494.487783    659.368373
PC13  -1253.710334  21978.646462  36117.160574    280.782849
PC14 -18582.194894 -20288.412451   4896.320469    300.574396
PC16 -19765.304229  36334.159125  -8721.911717     68.879172
PC19  20584.337419  13153.976810 -13435.810059   -913.470200
PC20  14480.409560  23666.445779   2810.066444    550.364451
PC21    891.257329 -20725.851546 -18662.083554   -916.855990
PC22  15119.193996  -5523.655852 -22790.118234   -475.036965
PC23 -26149.459725   7178.219216  -6584.785014   -936.225125
PC24  -9141.551147 -14898.719037  21740.975541    -21.724900
PC25 -25703.923478  -4220.034545   9980.485191    132.279899
PC26  10436.439255 -15956.646338  20374.416024   -124.330561
PC27 -10290.565894  25824.020406   2497.495881    144.359924
PC28 -18093.758597  16527.475542 -13349.353414    106.916258
PC29  15705.248301   3704.036258  22756.899072    124.175409
PC30   3849.818143  21632.311231  17204.097112     -0.497068
PC32   -860.314493  20663.867557  18743.776463   -558.323324
PC33 -20707.730488 -13109.044621  13375.995607   -885.006099
PC34  -4888.752617 -20727.434762 -18038.923852    176.939300
PC35  17657.943891 -16542.167547  13855.890080    622.054309
PC36  25263.582043   5279.219850 -10592.635408   -425.220942
PC37 -11987.263908  15471.779522 -19869.853616   -784.060820
PC38 -18664.239413  19722.295489  32254.533641     80.237576
PC39 -20904.415308  36595.862964  -3416.714205     -3.046420
PC40  -6312.078805  31299.133899 -27431.434914    -24.041265
PC41 -15573.610885   4900.871563  22689.027139   -937.849528
PC42 -13737.238937 -23963.228202  -4048.883211   -679.834545
PC43 -15473.329215  -4688.465769 -22759.973278     22.738345
PC44   9384.293579 -26158.654947  -2356.616143    115.395143
PC45  25969.891969  -7413.053647   7068.180499   -101.157116
PC46  10849.760488  14314.187030 -21364.565426    -56.122965
PE02 -20999.720579 -18287.636623  10015.466886     39.783570
PE03 -11936.818352 -22611.202228  14931.056643    -19.202548
PE04  17075.392754   2919.236608 -23988.333955   -128.558758
PE05    349.353361 -29435.100372  -3124.312527    -64.824274
PE07 -12417.644649  18697.041508  19302.377262    -47.191188
PE08 -16943.455654  -3276.241280  24057.203350    -87.488157
PE09  12332.873554 -18586.625799 -19457.951421    -24.555024
PE10  26103.623135 -12066.739005   7000.330555   -535.805021
PE11  23132.557757 -18114.568631  -3531.244080   2009.129872
PE12  24839.408442  -4517.290548  15425.552902   -550.305903
PE13 -23501.608107  17796.185445   2739.107486    -19.207446
PE14 -17232.893793 -17013.961170 -21274.640816    233.211267
PE15 -24702.772154   4322.336208 -15733.746110    -23.905474
PE18  15197.762901   4123.655652  18352.633443     96.889558
PE19  10413.291497  24527.522755 -12874.677474  -2468.370065
PE21   3497.332805  18970.188083 -22453.344228   -530.745658
PE24  17712.664164  -8207.034580  22240.745766   -114.435234
PE25  -3124.932824 -18882.683739  22582.977765   -605.536683
PE26  -7751.213670  20630.804963  19759.052073    112.545500
PE27 -17026.465854   8772.408300 -22565.662719    -56.490002
PE30 -27356.940677  -6963.336569  -8899.200595   -195.914330
PE31  27312.945173   6480.291287   9395.906478   -524.355937
PE33  11298.961862  11605.037485  24771.525885   -444.087850
PE34 -11474.364652 -11480.802640 -24763.222999    -46.920785
PE36   8541.643237 -20676.006549 -19380.826983    -60.331938
PG01   7348.070825 -18085.786106 -18174.555837    183.288299
PG02  22292.036598 -14206.065960   2250.144467   -593.300143
PG03  -3836.357696 -17365.282425 -19899.256122   -294.707168
PG04    236.106098 -26496.904133    143.108286     48.802793
PG05 -13236.673453   9520.760437  20815.312111   -128.277761
PG06 -22456.576016   2665.258982 -13950.349110    587.644492
PG07  -8793.973527 -12981.434637  21906.717976    171.220488
PG08   7087.052319 -22542.794848  11650.326413   -123.813626
PG09  -7841.649170 -23424.762643   9629.960860   -152.551043
PG10  24146.716275  11082.040273  -2757.512042    -38.111102
PG11 -23410.419577  12502.759578   -147.184061   -207.326724
PG12   -418.205053  16851.020324 -20824.176803   -379.509859
PG13 -12964.358289  16505.693771  15974.239734    523.919608
PG14 -23031.399660 -13393.987222   -235.725240     66.393242
PG15  -4086.985023  23670.267794  10583.734090     42.123870
PG16  17028.213709  -4929.309076  19611.812364   -498.501009
PG17 -13036.696132 -11128.133723 -19833.507727    715.841675
PG18  11338.999848  10430.795407  21650.917852   -277.983668
PG19 -14921.678838  -2089.566547 -22102.914185    320.706849
PG20 -20496.452860   5056.552402  16034.796271    432.033196
PG21  14421.628122 -19120.107129  -9934.690108    153.652034
PG22  15024.263901  -2105.707485 -21337.701350    486.034629
PG23  19002.177663  16453.437261   8821.654110     26.572567
PG24  -9857.944972  20219.972383 -14143.575018   -198.966213
PG25  12154.409229  18592.991002 -15070.408816    444.808820
PG26  24222.795576   2326.497695  10921.879403    240.406570
PG27  12753.207263 -12926.357332  18982.920071     31.550593
PG28  21679.302000  -1439.167427 -15296.189833     79.812056
PG29   3678.834792  25163.004620   7450.066751   -600.420221
PG30 -18431.018845  -5051.771787  18661.975921   -515.553592
PG31  24468.251809  -9435.500700  -5700.113772   -216.678765
PG32  14647.860964   7983.147409 -20531.594430   -483.300874
PJ02 -25743.734258  16394.045500 -24468.007961     -0.093567
PJ03 -27237.207082  32091.494604   1088.519298      4.760277
PJ04 -26649.374012  25815.736629  26027.882425     94.728334
PR01 -14593.253425 -18077.736421  10558.045780     58.025924
PR02 -12305.956831  -1832.239812  22306.765681    -22.806530
PR03  -3478.664326  15213.430372  20244.908101     78.330021
PR04   7012.807112  23470.508767   7164.793442    188.283676
PR05  13675.571910  19155.028357  -9844.697700    112.997773
PR07   2969.799036 -15788.574281 -19753.032424     56.464784
PR08  -7293.867066 -23443.316933  -6808.026005    -70.924009
PR09  24923.138361  -1008.354954   5151.689909    121.732372
PR11  -3031.736484 -11061.575149  22796.545642    -62.209799
PR12 -20918.518322  -7700.375967  12415.405960     27.496909
PR13 -25300.995205   -251.335814  -3251.464273    -35.345462
PR14 -14497.945578   8262.960725 -19287.249209     24.687709
PR15   4274.058970  11204.270776 -22492.033264     89.188138
PR16  20771.838743   7555.791564 -12689.925648     14.840832
PR17 -15063.122682  20547.967582   -755.122836    632.460077
PR18  -5996.714438  19746.810261  15036.661838     82.937261
PR19   5034.853592  10113.800864  22862.241665   -233.643639
PR20  16464.086542  -8570.873185  17475.504928    -93.346899
PR21  14656.748494 -20877.912884   -783.312984     -9.633446
PR22   5743.498152 -19314.606266 -15609.416382     80.935335
PR24 -16603.978150   9489.061906 -16863.316614    172.783557
PR25  16069.549010 -19802.506274    901.450561     61.825763
EOF
